OPTICUBE 04             
1 41851U 16067D   19163.26285003 -.00000048  00000-0  11013-5 0  9999
2 41851  97.9153 260.7964 0009759  52.1218 308.0884 14.96801182140958
AEROCUBE 8D             
1 41852U 16067E   19163.19837244  .00000127  00000-0  16466-4 0  9995
2 41852  97.9164 260.5562 0010521  52.5550 307.6627 14.96708230140922
AEROCUBE 8C             
1 41853U 16067F   19162.82000898  .00000745  00000-0  70501-4 0  9998
2 41853  97.9170 260.1100 0011262  55.9508 304.2780 14.96676324140861
PROMETHEUS 2-1          
1 41854U 16067G   19162.85518479 -.00000083  00000-0 -19185-5 0  9990
2 41854  97.9172 260.2771 0011263  53.2680 306.9574 14.96887830140879
PROMETHEUS 2-3          
1 41855U 16067H   19162.79070282  .00000018  00000-0  68548-5 0  9992
2 41855  97.9175 260.2272 0011411  53.7936 306.4339 14.96892125140869
INS-1B                  
1 41954U 17008G   19163.12648560  .00001089  00000-0  47937-4 0  9993
2 41954  97.4001 228.2550 0009793 158.9704 201.1938 15.23925761128806
BGUSAT                  
1 41999U 17008BD  19162.72647113  .00001778  00000-0  71789-4 0  9997
2 41999  97.4075 230.1968 0008381 171.7893 188.3484 15.26078541128232
DIDO-2                  
1 42000U 17008BE  19162.98405594  .00000767  00000-0  34677-4 0  9996
2 42000  97.4014 228.6600 0008555 176.7168 183.4127 15.23882547128187
PEASSS                  
1 42015U 17008BV  19162.75515529  .00000942  00000-0  40804-4 0  9991
2 42015  97.4022 229.3787 0006285 179.0026 181.1226 15.24840419128697
AL-FARABI 1             
1 42016U 17008BW  19163.41282659  .00001218  00000-0  50951-4 0  9992
2 42016  97.4037 230.5617 0006279 175.3292 184.8006 15.25469653128949
NAYIF-1 (EO-88)         
1 42017U 17008BX  19162.87572244  .00001268  00000-0  52895-4 0  9998
2 42017  97.4035 230.0400 0006179 177.2232 182.9041 15.25501819128889
ALTAIR PATHFINDER       
1 42711U 98067LS  19163.46253812  .00029170  00000-0  15416-3 0  9995
2 42711  51.6344 322.0783 0001791 131.8122 228.3033 15.80355645118105
ZA-AEROSAT              
1 42713U 98067LU  19151.03730059  .02928871  12128-4  58594-3 0  9990
2 42713  51.6172 356.2792 0012791 275.7272  84.2292 16.30383675116521
NJUST-1                 
1 42722U 98067MB  19163.40612444  .00140702  19461-4  28128-3 0  9995
2 42722  51.6306 301.8205 0004634 296.4845 105.7881 15.99489544117438
NSIGHT                  
1 42726U 98067MF  19162.71450998  .00017788  00000-0  14261-3 0  9991
2 42726  51.6370 344.3947 0005053 148.8482 211.2816 15.71107733116720
UCLSAT                  
1 42765U 17036A   19162.83424908  .00000922  00000-0  42466-4 0  9997
2 42765  97.3514 220.9910 0009814 250.8625 109.1549 15.22720743109426
LITUANICASAT-2          
1 42768U 17036D   19162.81330005  .00001604  00000-0  71545-4 0  9990
2 42768  97.3549 220.5683 0013579 240.7765 119.2114 15.22755667109261
AALTO-1                 
1 42775U 17036L   19162.69038932  .00000612  00000-0  30380-4 0  9998
2 42775  97.3500 219.6158 0012502 241.4692 118.5285 15.21321330109147
URSA MAIOR              
1 42776U 17036M   19162.71752589  .00000676  00000-0  33075-4 0  9997
2 42776  97.3509 219.7874 0012327 241.2425 118.7573 15.21452142109159
COMPASS 2               
1 42777U 17036N   19162.70060540  .00001301  00000-0  58488-4 0  9997
2 42777  97.3547 220.9171 0011003 241.8798 118.1327 15.22859279109205
DIAMOND RED             
1 42783U 17036U   19162.87707753  .00000778  00000-0  36877-4 0  9991
2 42783  97.3515 220.6408 0010502 252.1039 107.9053 15.22179296109210
PEGASUS                 
1 42784U 17036V   19162.72602068  .00000883  00000-0  41083-4 0  9991
2 42784  97.3519 220.7089 0010397 252.1667 107.8435 15.22468854109203
DIAMOND GREEN           
1 42785U 17036W   19163.40178887  .00000779  00000-0  36906-4 0  9997
2 42785  97.3517 221.1779 0010409 250.6987 109.3124 15.22181231109286
DIAMOND BLUE            
1 42786U 17036X   19163.40086937  .00000759  00000-0  36065-4 0  9996
2 42786  97.3517 221.1753 0010252 250.9234 109.0893 15.22178335109284
NUDTSAT                 
1 42787U 17036Y   19163.12239671  .00001359  00000-0  59979-4 0  9997
2 42787  97.3538 221.7598 0009779 253.9012 106.1151 15.23420317109141
SUCHAI                  
1 42788U 17036Z   19162.80072819  .00001054  00000-0  47935-4 0  9992
2 42788  97.3523 221.0756 0009976 250.8434 109.1724 15.22879567109309
SKCUBE                  
1 42789U 17036AA  19162.68462451  .00000987  00000-0  45178-4 0  9995
2 42789  97.3520 220.9065 0009843 251.3739 108.6429 15.22781356109208
VZLUSAT-1               
1 42790U 17036AB  19162.71511633  .00001269  00000-0  56212-4 0  9993
2 42790  97.3535 221.3661 0009400 249.9974 110.0251 15.23419549109232
ROBUSTA-1B              
1 42792U 17036AD  19163.14188998  .00000997  00000-0  45412-4 0  9994
2 42792  97.3520 221.4996 0009427 250.3149 109.7071 15.22946810109295
CICERO 6                
1 42793U 17036AE  19162.67422092  .00000703  00000-0  33238-4 0  9996
2 42793  97.3504 220.8348 0008650 254.1642 105.8641 15.22555727109281
D-SAT                   
1 42794U 17036AF  19163.36550167  .00000091  00000-0  13239-4 0  9998
2 42794  97.5398 208.3479 0127149 162.0773 198.4992 14.91090813107390
CORVUS BC2              
1 42846U 17042X   19162.70417440  .00000136  00000-0  18673-4 0  9993
2 42846  97.5669  56.9852 0011234  79.8326 280.4160 14.91970175103974
CORVUS BC1              
1 42847U 17042Y   19162.92613378  .00000257  00000-0  30599-4 0  9991
2 42847  97.5669  57.3035 0010830  78.7938 281.4499 14.92070623104002
MIRATA                  
1 43015U 17073C   19162.78352965  .00000476  00000-0  42638-4 0  9999
2 43015  97.7200  84.2681 0255317 179.9830 180.1436 14.78959301 84270
MAKERSAT 0              
1 43016U 17073D   19162.72883551  .00000339  00000-0  31888-4 0  9997
2 43016  97.7233  84.4140 0257515 180.5045 179.5947 14.78720212 84262
ASTERIA                 
1 43020U 98067NH  19162.79719901  .00020363  00000-0  16792-3 0  9993
2 43020  51.6431 354.8977 0002320 105.4369 254.6885 15.70329375 88779
DELLINGR (RBLE)         
1 43021U 98067NJ  19162.80619274  .00006986  00000-0  81160-4 0  9995
2 43021  51.6393   6.8550 0002766  88.2653 271.8658 15.63015979 88612
AEROCUBE 7B (OCSD B)    
1 43042U 17071F   19163.27939000  .00002257  00000-0  63294-4 0  9993
2 43042  51.6388  84.2676 0005147 125.2019 234.9449 15.41145009 85093
AEROCUBE 7C (OCSD C)    
1 43043U 17071G   19163.21457942  .00002208  00000-0  62137-4 0  9999
2 43043  51.6389  84.5985 0005321 128.8361 231.3100 15.41148493 85055
CHEFSAT                 
1 43044U 17071H   19163.34532631  .00004285  00000-0  10233-3 0  9999
2 43044  51.6389  78.8343 0005196 125.9346 234.2123 15.43755146 85149
ASGARDIA 1              
1 43049U 17071N   19163.29670856  .00002076  00000-0  58740-4 0  9992
2 43049  51.6395  83.6753 0002715 138.5232 221.5960 15.41276265 85065
ISARA                   
1 43050U 17071P   19163.35898838  .00003957  00000-0  96729-4 0  9991
2 43050  51.6382  79.6354 0002638 132.1613 227.9597 15.43261831 85120
PROPCUBE 2 (FAUNA)      
1 43052U 17071R   19163.23874499  .00002624  00000-0  71061-4 0  9999
2 43052  51.6393  83.3065 0002666 132.9580 227.1629 15.41551552 85068
CORVUS BC3              
1 43118U 18004H   19162.70628347  .00000620  00000-0  29549-4 0  9997
2 43118  97.4868 230.0865 0008779 277.7369  82.2870 15.22829278 78410
MICROMAS-2A             
1 43131U 18004W   19163.17798874  .00001448  00000-0  62616-4 0  9998
2 43131  97.4894 231.2287 0007728 277.6761  82.3598 15.24089095 78520
CICERO 7                
1 43143U 18004AJ  19162.74244308  .00001229  00000-0  53370-4 0  9995
2 43143  97.4881 231.0076 0005940 292.2836  67.7771 15.24226944 78473
GOMX-4B                 
1 43196U 18015E   19163.53185537  .00000334  00000-0  16722-4 0  9997
2 43196  97.3887 291.1578 0019211 333.2160  26.8095 15.23934947 75405
GOMX-4A                 
1 43197U 18015F   19163.39628788  .00000383  00000-0  18687-4 0  9998
2 43197  97.3907 291.0496 0018426 335.4099  99.4495 15.24029441 75392
1KUNS-PF                
1 43466U 98067NP  19162.83094792  .00015529  00000-0  15428-3 0  9999
2 43466  51.6382   9.2456 0001451 119.3051 240.8089 15.65953186 61846
UBAKUSAT                
1 43467U 98067NQ  19163.14541998  .00008170  00000-0  95183-4 0  9991
2 43467  51.6385  11.3444 0002638  65.5779 294.5490 15.62666120 61857
BATSU-CS1 (IRAZU)       
1 43468U 98067NR  19162.83234299  .00023111  00000-0  20309-3 0  9999
2 43468  51.6372   6.2344 0001413 133.7138 226.3976 15.68690495161876
CUBERRT                 
1 43546U 98067NU  19162.99767240  .00025026  00000-0  26124-3 0  9998
2 43546  51.6389  13.3560 0005582 109.7730 250.3868 15.64326328 51942
TEMPEST-D               
1 43547U 98067NV  19163.18493672  .00003278  00000-0  49648-4 0  9998
2 43547  51.6393  19.1051 0006331  99.3598 260.8110 15.57914914 51566
RAINCUBE                
1 43548U 98067NW  19163.13444938  .00009387  00000-0  11433-3 0  9992
2 43548  51.6380  15.7555 0006248 112.0130 248.1528 15.61278008 52055
HALOSAT                 
1 43549U 98067NX  19163.01009557  .00011148  00000-0  13494-3 0  9991
2 43549  51.6387  16.4349 0006151 112.9859 247.1784 15.61210091 51591
ENDUROSAT ONE           
1 43551U 98067NZ  19162.84608333  .00011372  00000-0  12989-3 0  9998
2 43551  51.6385  15.3440 0006500 121.1854 238.9778 15.62702456 52007
EQUISAT                 
1 43552U 98067PA  19163.01297164  .00009776  00000-0  11768-3 0  9994
2 43552  51.6400  15.7261 0006802 119.9455 240.2214 15.61526075 51974
AEROCUBE 12A            
1 43556U 18046C   19163.31075681  .00000928  00000-0  45442-4 0  9995
2 43556  51.6434  87.2610 0008984  49.1732 311.0025 15.28693458 50588
AEROCUBE 12B            
1 43557U 18046D   19162.86609287  .00001609  00000-0  69721-4 0  9993
2 43557  51.6433  89.5391 0008909  47.7792 312.3943 15.28565766 50466
